{
 "type": "FeatureCollection",
 "features": [
  {
   "type": "Feature",
   "properties": {
    "name": "Lake Baikal study area"
   },
   "geometry": {
    "type": "Polygon",
    "coordinates": [
     [
      [
       103.6,
       51.3
      ],
      [
       106.0,
       51.2
      ],
      [
       109.8,
       53.0
      ],
      [
       110.3,
       55.9
      ],
      [
       108.5,
       56.0
      ],
      [
       105.6,
       53.4
      ],
      [
       103.6,
       51.3
      ]
     ]
    ]
   }
  }
 ]
}
